[{"OBJECT_NAME":"STARLINK-5238","OBJECT_ID":"2022-141AH","EPOCH":"2026-03-09T22:35:44.472480","MEAN_MOTION":15.08835161,"ECCENTRICITY":0.00012785,"INCLINATION":53.2202,"RA_OF_ASC_NODE":353.1507,"ARG_OF_PERICENTER":80.6449,"MEAN_ANOMALY":279.4687,"EPHEMERIS_TYPE":0,"CLASSIFICATION_TYPE":"U","NORAD_CAT_ID":54188,"ELEMENT_SET_NO":999,"REV_AT_EPOCH":18603,"BSTAR":2.7678693e-5,"MEAN_MOTION_DOT":1.53e-6,"MEAN_MOTION_DDOT":0},{"OBJECT_NAME":"QPS-SAR-7 (TSUKUYOMI-II)","OBJECT_ID":"2024-066F","EPOCH":"2026-03-09T22:44:25.024704","MEAN_MOTION":15.07520552,"ECCENTRICITY":3.06e-5,"INCLINATION":45.6053,"RA_OF_ASC_NODE":45.6252,"ARG_OF_PERICENTER":310.671,"MEAN_ANOMALY":49.4148,"EPHEMERIS_TYPE":0,"CLASSIFICATION_TYPE":"U","NORAD_CAT_ID":59447,"ELEMENT_SET_NO":999,"REV_AT_EPOCH":10524,"BSTAR":0.00063712098,"MEAN_MOTION_DOT":9.59e-5,"MEAN_MOTION_DDOT":0}]
